{"type":"Topology","arcs":[[[79508,56826],[-2058,259]],[[77450,57085],[-90,229],[-6128,775]],[[71232,58089],[-7162,903]],[[64070,58992],[-2455,6300]],[[61615,65292],[258,2444],[7242,-945],[725,4769],[399,3026],[-53,659],[-236,751],[-683,1028]],[[69267,77024],[1302,-573],[1080,-78],[710,93],[1001,494],[735,688],[8265,-1046],[-946,-6521],[-1906,-13255]],[[48860,51882],[2033,911],[325,-768],[2501,-2587],[1249,416]],[[54968,49854],[5135,-13143]],[[60103,36711],[-811,-388],[-990,-280],[-1203,-198],[-1264,-33],[-2698,252],[-1634,216],[-484,-14],[-15,-507],[226,-1056],[-172,-892],[-1102,-84],[-1115,90],[-2543,309],[-496,218],[-868,783]],[[44934,35127],[-602,359],[-5503,1376],[-376,40],[-6008,1486],[396,1269]],[[32841,39657],[634,2078],[1188,3724],[463,1763],[472,2980],[194,300],[290,1013],[-27,1843],[56,498],[338,928],[2005,-355],[1259,-435],[1345,-621],[1125,-610],[2173,-1292],[958,-668],[947,-18],[1128,516],[600,-19],[222,307],[649,293]],[[79508,56826],[10566,-1327],[8644,-1086],[1281,9],[-1499,-10044],[-10,-357],[-7,-192],[-1313,-9213],[-576,-3828],[-455,-2810],[-10,-66]],[[96129,27912],[-1601,1810],[-821,563],[-951,310],[-2724,553],[-1553,578],[-1208,932],[-828,787],[-2161,2942],[-875,136],[-648,786],[-1600,2271],[-1747,1416],[-1669,547],[-3598,-270]],[[74145,41273],[-206,529]],[[73939,41802],[-916,2355]],[[73023,44157],[8380,2875],[-3953,10053]],[[16811,89143],[4169,-5111]],[[20980,84032],[1694,-2105],[12,-196],[-2439,-1809],[-7656,-5608],[-1070,-522]],[[11521,73792],[-1225,646],[-1448,532],[-2438,745],[-1767,1050],[-3041,1380],[-906,682],[-496,819],[-200,1466],[938,491],[799,755],[506,1070],[298,1008],[1546,-325],[410,2811],[543,1655],[483,944],[704,1061],[6040,4176],[1396,-1690],[3148,-3925]],[[20980,84032],[1302,74],[10472,-1320],[481,80],[6385,-804]],[[39620,82062],[-547,-678],[-817,-1506],[-363,-1234],[-378,-2430],[-312,-2301],[178,-24],[-29,-1246],[70,-804],[563,-2743],[-123,-1025],[-390,69],[-118,-792],[179,-1118],[267,-629],[40,-527],[-395,-755]],[[37445,64319],[-1924,1164],[-2071,772],[-3058,856],[-2267,455],[-506,248],[-1559,281],[-170,-162],[-6692,1136],[-3650,664]],[[15548,69733],[-196,814],[-307,479],[-862,928],[-716,601],[-1330,956],[-616,281]],[[38766,96907],[996,-160],[-324,949],[527,572],[713,1731],[11998,-1715],[12218,-1736],[-536,-4913],[-985,-9593],[-144,-1228],[596,-231],[221,-474],[801,-1063],[658,-512],[889,-402],[1100,-127],[874,-342],[899,-639]],[[61615,65292],[-772,826],[-16333,15328],[-1455,1381],[-580,991]],[[42475,83818],[-491,803],[399,471],[-121,744],[-613,1540],[-390,2050],[-288,2162],[-333,1220],[-1138,2279],[-734,1820]],[[78457,23740],[12886,-1975],[1325,7909],[1086,-601],[819,-764],[1471,-1675]],[[96044,26634],[90,-1029],[-747,-4459],[-833,-4732],[-1694,-9794],[-927,-6620],[-4015,596],[-5759,18614],[-749,1540],[-762,1038],[-1752,1458],[-439,494]],[[37445,64319],[2209,-1068],[1857,-1671],[1725,-1382],[916,-1018],[182,-507],[701,-1048]],[[45035,57625],[829,-1273],[2996,-4470]],[[32841,39657],[-4344,574],[16,108],[-3598,456],[-5671,-75],[-7787,-1335],[24,-97],[-1618,-673],[-1108,-288],[-2518,-1189],[-1362,-767],[-1659,560],[642,845],[449,876],[123,762],[-164,2477],[-285,1372],[-449,1772],[-440,1995],[14,2395],[292,2143],[643,2770],[162,1255],[2017,5644],[773,1960],[788,1760],[907,1557],[643,710],[819,490],[803,206],[790,-56],[409,-163],[672,-586],[819,-70],[760,534],[833,995],[312,1159]],[[73023,44157],[-2786,-956],[-3060,7830]],[[67177,51031],[5578,1914],[-1660,4209],[137,935]],[[60103,59544],[3967,-552]],[[67177,51031],[-2785,-961],[-1010,2614],[-2761,-952]],[[60621,51732],[-1189,3015],[671,4797]],[[54968,49854],[5653,1878]],[[73939,41802],[-1211,-154],[-3108,-571],[-833,-208],[-2597,-783],[-857,-319],[-3128,-1772],[-2102,-1284]],[[39620,82062],[416,-53],[1266,1120],[1173,689]],[[60103,59544],[-5930,780],[-6303,773],[-2166,296],[-425,-2788],[-244,-980]],[[96129,27912],[-85,-1278]],[[78457,23740],[-515,704],[-353,988],[-187,2183]],[[77402,27615],[11,1652],[105,1615],[-54,1010],[-255,1361],[-244,776],[-2252,5783]],[[74713,39812],[-568,1461]],[[74713,39812],[-1442,-426],[-3961,-2026],[-493,-403],[-3952,-3977],[-3416,-3396]],[[61449,29584],[-1219,202],[-2381,625],[-1681,366],[-5377,1026],[-1343,293],[-1737,282],[-2301,460],[-1715,224],[173,828],[866,367],[200,870]],[[77402,27615],[-6178,-2110],[-2995,3564],[-1026,720],[-724,253],[-668,-70],[-1343,-376],[-70,182],[-1776,-232],[-1173,38]]],"transform":{"scale":[8.863990883728957e-7,7.522003577170782e-7],"translate":[144.90271795975463,-37.85065421908225]},"objects":{"sa2":{"type":"GeometryCollection","geometries":[{"arcs":[[0,1,2,3,4,5]],"type":"Polygon","properties":{"SA2_NAME21":"Carlton"}},{"arcs":[[6,7,8,9,10]],"type":"Polygon","properties":{"SA2_NAME21":"Docklands"}},{"arcs":[[-1,11,12,13,14,15]],"type":"Polygon","properties":{"SA2_NAME21":"East Melbourne"}},{"arcs":[[16,17,18]],"type":"Polygon","properties":{"SA2_NAME21":"Flemington Racecourse"}},{"arcs":[[19,20,21,22,-18]],"type":"Polygon","properties":{"SA2_NAME21":"Kensington (Vic.)"}},{"arcs":[[23,-5,24,25]],"type":"Polygon","properties":{"SA2_NAME21":"Parkville"}},{"arcs":[[26,27]],"type":"Polygon","properties":{"SA2_NAME21":"South Yarra - West"}},{"arcs":[[-22,28,29,-11,30]],"type":"Polygon","properties":{"SA2_NAME21":"West Melbourne - Industrial"}},{"arcs":[[-2,-16,31,32]],"type":"Polygon","properties":{"SA2_NAME21":"Melbourne CBD - East"}},{"arcs":[[33,-3,-33,34,35]],"type":"Polygon","properties":{"SA2_NAME21":"Melbourne CBD - North"}},{"arcs":[[36,-35,-32,-15,37,-8]],"type":"Polygon","properties":{"SA2_NAME21":"Melbourne CBD - West"}},{"arcs":[[38,-25,-4,-34,39,-29,-21]],"type":"Polygon","properties":{"SA2_NAME21":"North Melbourne"}},{"arcs":[[40,-27,41,42,43,-13]],"type":"Polygon","properties":{"SA2_NAME21":"Royal Botanic Gardens Victoria"}},{"arcs":[[-14,-44,44,45,-9,-38]],"type":"Polygon","properties":{"SA2_NAME21":"Southbank (West) - South Wharf"}},{"arcs":[[-43,46,-45]],"type":"Polygon","properties":{"SA2_NAME21":"Southbank - East"}},{"arcs":[[-40,-36,-37,-7,-30]],"type":"Polygon","properties":{"SA2_NAME21":"West Melbourne - Residential"}}]}}}