{"type":"Topology","arcs":[[[32075,28522],[-324,407],[-418,27],[-237,-481],[-458,320],[-56,341],[150,588],[-852,174],[71,722],[268,240],[79,849]],[[30298,31709],[537,-147],[142,1330],[1856,-374],[245,-308],[-63,-541],[134,-615],[-237,-655],[-340,-240],[8,-388],[529,-327],[-418,-822],[-506,93],[-110,-193]],[[30298,31709],[-142,348],[95,842],[-411,93],[48,575],[-150,481],[300,789],[-24,728],[79,708],[205,-53],[103,1022],[268,308],[292,-334],[1193,-61],[79,769],[237,120]],[[32470,38044],[671,-120],[103,-501],[418,-288],[55,-387],[403,-161],[316,749],[87,1490],[521,-214],[766,-140],[-55,-568],[1097,-241],[87,856],[790,-308],[-16,-554],[-198,-348],[-371,-1283],[948,-755],[-32,-508],[292,-47],[-39,-688],[-371,53],[-32,-875],[782,-234],[253,374]],[[38945,33346],[-150,-1269],[118,-201],[-118,-748]],[[38795,31128],[-71,-789],[-356,-113],[24,-401],[-300,-94],[71,-408],[-458,74],[-119,-468],[466,-695],[32,-407],[1058,220],[-142,-1457]],[[39000,26590],[-119,-1116],[-252,-481]],[[38629,24993],[-253,334],[-63,715],[-600,-26],[-95,-662],[-237,-20],[-395,514],[-821,181]],[[36165,26029],[-1026,247],[-774,34],[-111,-589],[-1224,47],[-260,515],[-237,167]],[[32533,26450],[39,1250],[-292,294],[-205,528]],[[32533,26450],[-908,120],[-48,-394],[-458,93],[-284,321],[-892,-822],[-103,-581],[55,-622],[-229,-788],[316,-67],[-110,-1123],[-363,121]],[[29509,22708],[-127,461],[-1453,334],[-410,681],[110,629],[-134,267],[71,895],[-71,542],[268,2432],[-355,-240],[-876,20],[-553,-1664],[-387,147],[-142,274],[-837,67]],[[24613,27553],[-1208,227],[150,327],[395,-93],[86,688],[229,140],[71,615],[206,-47],[95,796],[-332,400],[181,241],[308,2600],[372,1323],[260,247],[-308,1043],[521,133],[-458,1477],[-339,-474],[-434,66],[-190,836],[-632,-234],[16,387],[-300,201],[47,381],[379,889],[0,935],[-94,127],[71,869],[-134,227],[221,1644],[829,134],[1626,-281],[735,-428],[173,127],[687,-180],[-47,494],[379,468],[95,742],[-32,695],[-229,682],[-237,340],[-55,535],[292,648]],[[28008,47500],[95,-247],[632,-20],[702,-140],[427,380],[450,-274],[166,-294],[-119,-902],[790,-200],[-111,-1096],[719,-154],[292,-240],[490,53]],[[32541,44366],[-79,-668],[-253,-127],[-213,-501],[150,-428],[-276,-361],[568,-120],[174,-254],[545,-141],[268,-1470],[-150,-962],[-616,-742],[-189,-548]],[[38408,45462],[-364,-134],[-55,-314],[-639,141],[-222,213],[-386,-66],[-324,-722],[-387,80],[87,976],[-435,93],[-47,1130]],[[35636,46859],[734,648],[40,367],[355,67],[150,929],[822,13],[-261,-2639],[268,394],[664,-1176]],[[32541,44366],[537,-114],[31,268],[600,-134],[782,1804],[48,448],[-151,461],[-734,154],[8,668],[600,0],[0,568],[387,0],[142,-280],[506,-7],[79,-475],[-64,-561],[324,-307]],[[38408,45462],[481,-107],[-221,1129],[308,595],[474,-93]],[[39450,46986],[1650,0],[-8,-722],[632,33],[790,194]],[[42514,46491],[-24,-942],[71,-635],[608,-922],[-347,-374],[-245,-769],[-40,-508],[-536,-240],[-324,40],[-340,-354],[0,-321],[-553,167],[-457,-34],[-624,-227],[55,-915],[-118,-923],[497,228],[245,-154],[987,-13],[489,-361],[-94,-642],[-166,-321]],[[41598,38271],[-592,-86],[-95,-508],[-292,-568],[-221,-147],[584,-1076],[-245,-702],[-332,13],[-47,-461],[-268,7],[-158,-508],[-545,-575],[-379,20],[-63,-334]],[[28008,47500],[182,675],[-205,675],[-466,207],[-32,508],[-205,668],[-971,862],[-206,689]],[[26105,51784],[190,-234],[829,-214],[55,622],[324,147],[55,1323],[-79,447],[434,-147],[40,1564],[355,0],[-63,582],[584,768],[-323,421],[55,568],[-261,13],[-15,1390],[-332,-6],[0,2292],[505,254],[1003,13],[0,662],[1224,47],[0,514],[798,0],[821,-194],[-134,-367],[623,-47],[253,-234],[2416,7],[293,47],[23,654],[553,-140],[292,-220]],[[36623,62316],[-39,-335],[347,-688],[-126,-555],[418,-708],[-150,-220],[158,-588],[-324,-722],[-213,-2099],[134,-481],[0,-1256],[553,0],[-16,-1109],[308,0],[127,-441],[671,26],[2645,0],[-110,-655],[79,-394],[-356,-381],[-284,-942],[39,-468],[-244,-795],[-711,-1256],[103,-542],[-182,-721]],[[36165,26029],[205,-1283],[-300,-481],[-126,-709],[387,-80],[118,-942],[-79,-334],[245,-902],[261,-462],[-198,-267],[-86,-1076],[-214,-1724],[608,-127]],[[36986,17642],[-142,-1283],[-805,167],[-284,-702],[-1611,415],[-71,-662],[-403,87],[63,-735],[-742,-140],[87,-642],[-71,-675],[-1043,-107]],[[31964,13365],[395,3662],[-505,-280],[87,922],[434,-87],[95,916],[284,167],[87,541],[-245,481],[-1003,207],[134,455],[-39,467],[126,1116],[-695,47],[-347,-147],[-703,-33],[-284,808],[-276,101]],[[38629,24993],[395,-608],[-64,-782],[364,-735],[450,40],[284,-528],[205,-100]],[[40263,22280],[-363,-642],[-482,-167],[-55,-802],[-1074,61],[-173,207],[-419,-796],[-55,-427],[529,-354],[339,287],[458,-454],[253,60]],[[39221,19253],[63,-361],[-181,-722],[-324,140],[-127,-354],[-529,154],[-465,-27],[-64,-561],[-608,120]],[[39221,19253],[671,120],[821,915],[664,-240],[252,-448],[56,-581],[-593,-715],[-458,-902],[-126,-682],[-537,307],[-442,94],[-284,-368],[-774,174],[-656,-568],[-465,-281],[-861,-1216],[-569,-354],[-181,-428],[-553,-107],[-324,-675],[-758,-127],[-631,-1089],[-56,-635],[-316,-274]],[[33101,11173],[-1350,248],[308,421],[-189,661],[94,862]],[[42514,46491],[1524,54],[0,935],[608,0],[632,949],[481,-481],[498,0]],[[46257,47948],[410,0],[190,-214],[379,134],[-166,481],[261,247],[821,0],[568,1657],[2488,0],[592,-140],[0,1243],[1113,0],[-8,1089],[308,134]],[[53213,52579],[450,-448],[261,94],[0,-1751],[-166,-1423],[190,-1731],[-135,-428],[95,-615],[482,-975],[-63,-1364],[79,-374],[466,-147],[442,-347],[205,1035],[490,47],[584,-260],[55,447],[-395,361],[253,421],[553,-234],[189,-367],[316,-134],[16,-541],[355,-94],[466,-454],[300,67],[703,-782],[205,6],[3459,-4063]],[[63068,38525],[-1113,-3969],[-1232,-4812]],[[60723,29744],[-466,268],[-292,-488],[-229,107],[-537,628],[-466,-368],[-569,208],[-323,280],[-119,-621],[-379,-515],[47,-1122],[198,-315],[110,-561],[-71,-341],[-355,-474],[-395,688],[-237,-294],[-513,-113],[-869,320],[-221,-254],[-8,-715],[-331,-327],[-292,361]],[[54406,26096],[134,140],[-363,849],[-656,902],[269,414],[-24,1190],[-482,173],[-308,442],[-687,-582],[-639,1003],[-419,20]],[[51231,30647],[-221,795],[48,1236],[-577,174],[-1003,-107],[-244,541],[-758,87],[-151,394],[-426,-153],[-158,147]],[[47741,33761],[0,721],[-434,883],[8,628],[-1129,6],[-87,595],[-679,-7],[-119,-1082],[-710,-414],[-545,106],[-166,-240]],[[43880,34957],[-284,53],[-474,441],[-40,622],[-229,120],[48,936],[-103,314],[-379,120],[-608,-147],[-166,227],[-47,628]],[[57856,60338],[632,113],[253,308],[639,-629],[340,301],[237,-408],[229,281],[-79,441],[252,468],[379,414],[443,-294],[545,241],[134,-281],[631,201],[285,-381]],[[62776,61113],[-71,-548],[-277,60],[-173,-1029],[-387,13],[-64,-735],[-165,-214],[71,-1824],[-134,-608],[655,-134],[-150,-1450],[537,401],[237,-60],[-190,-1076],[63,-555],[656,-401],[545,-47],[-64,-1129],[-529,-281],[-268,-380],[253,-468],[-8,-501],[-237,-555],[-40,-461],[-252,-334],[-71,-415],[173,-574],[-718,-1130],[845,-1383],[-182,-849],[221,-668],[95,-1524],[197,-240],[16,-2526],[-245,-127]],[[63115,39361],[-150,-241],[103,-595]],[[53213,52579],[-126,648],[-253,415],[79,701],[371,-87],[174,395],[0,568]],[[53458,55219],[2772,0],[63,848],[1050,0],[0,1317],[1027,0],[252,194],[-126,441],[71,401],[-411,140],[135,555],[-166,327],[-32,642],[-237,254]],[[63747,60398],[261,133],[205,-721],[513,80],[553,-568],[292,247],[292,-227],[142,-401],[348,-187],[197,655],[608,-147],[363,-274],[214,835],[323,267],[-8,481],[759,-173],[458,-375],[402,228],[474,-20],[379,-415],[371,562],[63,782],[387,407],[119,515],[521,-334],[142,327],[340,7],[347,-375],[-118,-247],[458,-521],[47,655],[624,-34],[331,475],[687,341],[364,-542],[394,-233],[214,93],[987,-668],[308,60],[-16,-608],[284,-381],[663,-80],[-110,-562],[63,-681],[403,-568],[-79,-715],[205,-495],[-63,-521],[63,-969],[-55,-508],[229,-461],[-198,-615],[0,-414],[245,-541],[182,-47],[118,-655],[419,-247],[39,-735],[126,-441],[-173,-482],[102,-240],[774,-501],[174,-575],[-32,-408],[-355,-835],[-158,-588],[-229,-120],[-166,-462]],[[79563,46631],[-1934,2533],[-4635,-2419],[-150,-615],[-632,-260],[-355,-341],[-340,635],[-316,327],[-1019,207],[16,-501],[-244,-254],[386,-1016],[340,34],[95,-615],[-387,-408],[-292,-842],[-198,-1550],[340,0],[537,-488],[497,40],[-71,-1323],[-237,-307],[-371,-141],[-8,-381],[663,-1356],[-529,-1236],[-1484,367]],[[69235,36721],[-4146,1036],[-466,488],[-323,594],[-450,-227],[-261,161],[-474,588]],[[62776,61113],[679,-869],[292,154]],[[60723,29744],[181,61],[387,-522],[285,-574],[-87,-455],[-348,-5787]],[[61141,22467],[277,-207],[-111,-368],[269,-548],[-72,-554],[-323,60],[23,-488],[-608,140],[-31,-254],[-900,502],[-222,-201],[-15,-862],[-600,-274],[-474,-421],[-95,-1069],[600,-47],[-110,-628],[205,-795]],[[58954,16453],[-805,-214],[-166,-515],[-300,60],[-435,-374],[-387,555],[-371,-87],[-592,261],[-490,340],[-181,-507],[-427,133],[-639,27],[-134,494],[-356,629],[-718,180]],[[52953,17435],[-253,67],[55,869],[-189,13],[324,1002],[205,221],[158,655],[-261,160],[174,414],[87,1705],[-348,601],[111,628],[268,555]],[[53284,24325],[143,414],[300,127],[71,595],[-182,474],[790,161]],[[80298,45569],[6633,-4678],[6190,-4290],[6878,-4678],[-450,-314],[-324,-414],[-363,46],[-869,-180],[-387,-334],[-473,-862],[-127,-615],[-331,-782],[-672,-321],[-315,-421],[-687,-287],[-450,-735],[-1611,-34],[-822,-240],[-584,234],[-987,0],[-2195,-80],[-474,-161],[-829,67],[-663,-207],[-253,-227],[-316,140],[-789,-127],[-506,120],[-2384,-40],[-916,-147],[-1556,-575],[-900,-501],[-1003,-441]],[[77763,24485],[-632,-220],[-947,-20],[-150,-582],[-964,-254],[-758,-588],[-110,-367],[-932,-1150],[-632,-107],[-110,-247],[-435,33],[79,916],[-118,314],[-569,134],[-268,494],[-87,669],[-797,207],[-261,167],[32,842],[-190,314],[190,1677],[-451,134],[40,374],[-363,54],[-95,548],[205,1630],[-513,294],[-205,334],[142,715],[0,936],[-213,281],[-8,661],[-442,662],[71,534],[-79,628],[165,502],[427,-154],[95,-274],[402,187],[79,942],[-158,395],[32,621]],[[79563,46631],[-331,-715],[244,-307],[466,80],[356,-120]],[[58954,16453],[-47,-976],[-395,-368],[-135,-1116],[751,-654],[-48,-1096],[427,-101]],[[59507,12142],[-103,-634],[442,-221],[119,-307],[663,-301],[1090,-274],[-48,-1350]],[[61670,9055],[-908,-207],[-363,-435],[-253,54],[-31,655],[-332,240],[-229,-274],[-426,-153],[-277,140],[-750,-541],[-118,-294],[166,-662],[213,-240],[197,-642],[253,107],[71,-1056],[253,-314],[63,-575],[276,60],[142,441],[632,575],[237,-27],[71,929],[189,355],[450,-121],[-102,-1650],[197,-328],[-402,-1036],[-166,-641],[102,-709],[277,-167],[-166,-534],[-269,-221],[48,-815],[-158,-354],[-513,-154],[-324,167],[-269,722],[245,314],[-237,688],[-608,869],[24,348],[-395,1049],[-489,875],[-624,695],[-545,414],[-561,54],[-395,-642],[87,-608],[-473,-401],[-585,114],[48,401],[-506,1851],[-300,695],[-545,1009],[-679,762],[-474,-54],[-426,-514],[-490,-14],[-513,528],[-252,776],[-601,1069],[-663,374],[-576,0],[-95,301],[624,147],[166,381],[-127,487],[119,569],[-63,547],[592,67],[363,-167],[387,849],[31,428],[-292,294],[-55,534]],[[50568,16439],[284,294],[664,-788],[71,902],[1334,-74],[32,662]],[[47860,14876],[-32,581],[174,1410],[458,-147],[237,-368],[655,127],[458,-40],[569,-902],[-301,-254],[-781,-120],[-150,-455],[-482,-454],[-805,622]],[[47536,12617],[-269,-408],[-845,435],[103,534],[490,475],[537,40],[687,-227],[-221,-381],[78,-515],[-560,47]],[[61141,22467],[814,521],[189,-314],[648,214],[339,-735],[-316,-742],[427,-93],[-135,-375],[-387,94],[-410,-1256],[292,-568],[316,247],[868,-94],[-39,-327],[-592,-1023],[-253,-641],[-118,-668],[-277,-435],[-197,-1911],[-150,-287],[-371,-14],[-514,-434],[-687,-394],[-481,-475],[-134,-695],[-466,80]],[[77763,24485],[-1058,-581],[-1042,-729],[-853,-775],[-1366,-1503],[-822,-1003],[-4895,-6709],[-853,-1270],[-648,-1062],[-537,-742],[-7,575],[-751,-141],[-229,-260],[-86,-141],[-222,-414],[-560,-134],[-261,-287],[-442,635],[-134,-501],[-371,-121],[-458,-367],[-498,100]],[[62184,8026],[331,-334],[-489,-575],[-648,281],[-339,688],[79,207],[489,-40],[-31,-621],[608,394]],[[65342,10111],[-418,-281],[-222,60],[-39,248],[111,0],[23,240],[237,161],[308,-428]],[[44354,26650],[-261,7]],[[44093,26657],[-32,642]],[[44061,27299],[-63,180]],[[43998,27479],[608,-13]],[[44606,27466],[-23,-281]],[[44583,27185],[63,-461]],[[44646,26724],[-292,-74]],[[44583,27185],[560,-100]],[[45143,27085],[48,-448]],[[45191,26637],[-545,87]],[[44093,26657],[-379,-227]],[[43714,26430],[-150,534]],[[43564,26964],[39,528],[458,-193]],[[44354,26650],[347,-614],[-39,-381]],[[44662,25655],[-40,-408]],[[44622,25247],[-150,401],[-726,134]],[[43746,25782],[-32,648]],[[44622,25247],[292,-180]],[[44914,25067],[-150,-462]],[[44764,24605],[-134,-133]],[[44630,24472],[-245,681],[-308,254],[-410,27]],[[43667,25434],[79,348]],[[44662,25655],[402,-94]],[[45064,25561],[95,-53]],[[45159,25508],[-55,-562]],[[45104,24946],[-190,121]],[[45191,26637],[47,-107]],[[45238,26530],[-371,-321],[197,-648]],[[45238,26530],[300,67]],[[45538,26597],[442,-221]],[[45980,26376],[-134,-1182]],[[45846,25194],[-32,-355]],[[45814,24839],[-655,669]],[[45538,26597],[174,568],[331,-74],[253,274]],[[46296,27365],[466,54]],[[46762,27419],[71,-628],[-182,-615]],[[46651,26176],[-671,200]],[[46651,26176],[24,-7]],[[46675,26169],[-110,-802],[110,-341]],[[46675,25026],[-829,168]],[[44764,24605],[411,-948]],[[45175,23657],[229,-669],[-40,-367]],[[45364,22621],[-229,-154],[-505,1323],[0,682]],[[45104,24946],[268,-320],[403,-194]],[[45775,24432],[-63,-602]],[[45712,23830],[-32,-280]],[[45680,23550],[-505,107]],[[45680,23550],[158,-67],[277,-882],[284,-60],[-79,-802],[205,-675]],[[46525,21064],[-371,-341]],[[46154,20723],[-300,1229],[-490,669]],[[45814,24839],[-39,-407]],[[45143,27085],[79,541],[221,535]],[[45443,28161],[229,247]],[[45672,28408],[182,-114],[537,201],[-95,-1130]],[[44606,27466],[-118,868]],[[44488,28334],[955,-173]],[[51231,30647],[-197,-428],[-276,595],[-616,46],[-490,274],[-229,381],[-561,-367],[-134,-1069],[-8,-836],[-410,-929],[-261,-394]],[[48049,27920],[-426,47],[-166,-421],[-648,40],[-47,-167]],[[45672,28408],[316,742],[16,334],[300,220],[95,963],[395,648],[639,802],[-174,434],[158,708],[324,502]],[[44488,28334],[39,789],[-189,301],[-63,735],[134,701],[-126,288],[260,608],[-1042,200]],[[43501,31956],[110,495],[87,1336],[221,876],[-39,294]],[[43564,26964],[-419,-160]],[[43145,26804],[-228,882],[-214,488]],[[42703,28174],[403,-214],[426,47]],[[43532,28007],[466,-528]],[[43501,31956],[-142,-234]],[[43359,31722],[-1114,261],[-489,301],[-979,-254],[-64,-588],[435,-729],[-498,94]],[[40650,30807],[-726,200],[-55,-127],[-1074,248]],[[43532,28007],[198,267],[758,60]],[[43359,31722],[-237,-715],[-450,-568],[55,-320],[-371,-321],[-174,-428],[-8,-521]],[[42174,28849],[-213,20]],[[41961,28869],[-663,134],[-316,314],[8,889],[-269,73],[-71,528]],[[42703,28174],[-110,535],[-419,140]],[[47338,23289],[-110,234]],[[47228,23523],[-142,174],[-119,1269]],[[46967,24966],[229,522]],[[47196,25488],[853,80],[269,-187]],[[48318,25381],[-103,-528],[-166,-1811]],[[48049,23042],[-150,334],[-561,-87]],[[48049,27920],[-71,-441],[103,-548]],[[48081,26931],[-616,-27],[-55,-488],[-245,-414]],[[47165,26002],[-490,167]],[[47196,25488],[-31,514]],[[48081,26931],[126,-274],[-39,-849],[150,-427]],[[46967,24966],[-292,60]],[[53284,24325],[-402,-87],[-87,341],[-561,-174],[-316,-468],[-158,281],[-639,154],[-190,434],[-252,134],[-253,-642],[-719,-33],[-339,-615],[-332,-147],[-31,-655]],[[49005,22848],[-956,194]],[[50568,16439],[-387,1404],[-616,367]],[[49565,18210],[-134,321],[-324,114],[119,955],[-8,809],[-245,414]],[[48973,20823],[-118,789],[213,588],[-63,648]],[[48973,20823],[-608,134],[-8,554],[-379,435],[-418,87]],[[47560,22033],[-245,314],[95,514],[-72,428]],[[49565,18210],[-213,-254],[-640,261],[-465,-608],[-632,434]],[[47615,18043],[-308,94],[-119,354]],[[47188,18491],[261,2372]],[[47449,20863],[111,1170]],[[45712,23830],[1516,-307]],[[47449,20863],[-924,201]],[[43145,26804],[-71,-454],[119,-408]],[[43193,25942],[-316,-154]],[[42877,25788],[-845,234]],[[42032,26022],[190,1952],[-261,895]],[[43667,25434],[-293,-367],[-521,-208],[-229,-454]],[[42624,24405],[-252,-100],[-300,581],[300,488],[505,414]],[[43193,25942],[553,-160]],[[42032,26022],[-1800,334],[-442,-73],[-182,187],[-608,120]],[[42624,24405],[-55,-555],[-616,-314],[-458,-615],[-568,-588],[-664,-53]],[[47188,18491],[-702,113],[-261,-106],[-347,728]],[[45878,19226],[244,474],[32,1023]],[[47615,18043],[-48,-454],[-268,-488],[-32,-655],[-331,-348],[284,-447],[32,-976],[-119,-167],[-853,321],[-418,-241],[-221,-441],[-285,-87],[-442,-962],[-955,-341],[-419,388],[-537,909],[-955,1283],[-956,995],[158,134],[593,-334],[363,-655],[529,-234],[403,0],[805,374],[719,628],[-56,395],[474,828],[0,522],[395,487],[403,749]],[[24613,27553],[-174,-589],[-434,-347],[-332,-809],[111,-227]],[[23784,25581],[-332,341],[-497,27],[47,414],[-561,388],[-513,-555],[-703,-581],[-395,187],[-908,180],[-623,-428],[-316,355],[-648,120]],[[18335,26029],[-23,361],[-253,508],[55,895],[229,568],[32,822],[-348,388],[-2590,554],[142,528],[-23,501],[173,682],[522,809],[79,454],[489,835],[245,1370],[158,468],[-545,468],[-111,314],[-355,100],[-221,441],[-497,228],[-332,507],[-971,956],[-79,488],[-206,260],[-576,101],[-545,-121],[-63,-975],[-182,-161],[-142,-1022],[-166,100],[-718,-113],[-119,233],[-876,274],[221,361],[-71,1123],[-466,-468],[-458,-133],[0,-301],[-805,-221],[-166,121],[-521,-214],[-427,561],[-497,-220],[-284,107],[-229,-522],[-940,-615],[-24,-514],[237,-274],[229,-708],[-1105,0],[0,-1444],[-2338,455],[0,-308],[450,-240],[206,-328],[-182,-695],[-1058,194],[-790,-575],[-568,922],[-806,842]],[[126,34756],[-31,2506],[16,4050],[-40,9035],[-47,9984],[-16,5520]],[[8,65851],[5954,0],[0,4831],[5527,0],[0,675],[932,-20],[671,-301],[276,34],[16,548],[427,0],[-371,1430],[94,802],[206,374],[481,80],[506,388],[276,-127],[545,100],[537,-227],[1374,20]],[[17459,74458],[-8,-1617],[95,-7],[-8,-1717],[1990,13],[-8,-5039],[-1335,-6],[0,-3836],[32,-1216],[0,-2366],[300,-94],[553,562],[560,-141],[-39,-855],[166,0],[-198,-1196],[-31,-1016],[229,-47],[-127,-655],[0,-2058],[743,-53],[0,-568],[268,-488],[2187,-388],[348,107],[237,662],[671,-127],[158,768],[1532,60],[71,-554],[260,-802]],[[450,99204],[-8,-341],[1311,-495],[347,101],[24,-435],[442,154],[198,254],[537,-328],[268,-494],[371,-167],[174,-354],[347,187],[758,-749],[348,-120],[260,214],[261,-441],[-39,-314],[292,-321],[616,642],[473,721],[8,361],[498,388],[371,53],[513,-260],[490,-67],[442,-328],[442,34],[221,374],[521,-180],[411,147],[576,-321],[285,73],[221,-922],[434,27],[24,301],[466,86],[-71,-374],[434,-234],[229,47],[276,-682],[-8,-568],[111,-1162],[861,-642],[418,241],[316,-214],[-63,-428],[-261,-200],[-189,-508],[237,-1450],[-143,-522],[237,-401],[-47,-414],[332,-134],[268,-521],[419,207],[31,-548],[-134,-454],[134,-956],[411,-327],[118,-394],[-197,-729],[181,-274]],[[17253,85043],[16,-2105],[1295,-6],[63,-381],[624,-61],[0,-4397],[506,-6],[-95,-1604],[-1366,73],[8,-2138],[-845,40]],[[8,65851],[8,120],[31,6823],[-8,10031],[-15,8326],[-24,6623],[16,2225],[434,-795]],[[17253,85043],[861,-341],[245,-253],[-8,942],[727,294],[268,815],[-190,521],[206,649],[-87,307],[592,7],[-55,501],[434,-120],[182,-468],[576,-261],[229,-1049],[529,521],[435,-534],[426,113],[418,-635],[285,254],[308,-227],[458,13],[702,-541],[632,-735],[363,-548],[293,147],[418,-127],[16,-1243],[-269,-715],[158,-728],[-252,-294],[-16,-729],[197,-327],[79,-1551],[40,-407],[450,-642],[-32,-655],[127,-414],[600,74],[237,-582],[521,147],[118,-160],[387,334],[182,-221],[-174,-427],[221,-829],[-237,-755],[561,-956],[292,-641],[403,581],[300,-361],[600,-100],[126,-267],[545,-562],[576,-855],[403,-354],[521,-74],[237,-554],[245,-67],[142,-421],[387,100],[197,-468],[474,-267],[166,-581],[474,-976],[268,20],[300,-314],[24,-381],[363,-287],[142,-535],[387,227],[316,-608],[569,-648],[63,-969],[308,-341],[-8,-561]],[[38234,62944],[-300,280],[-419,-187],[119,-294],[-213,-481],[-569,207],[-229,-153]],[[38234,62944],[332,-608],[371,-294],[450,-829],[821,-742],[1019,-681],[229,-482],[489,-421],[727,-274],[237,395]],[[42909,59008],[379,287],[505,87],[324,-581],[371,-234],[245,120],[134,-595],[537,-274],[371,120],[482,-427]],[[46257,57511],[0,-2012],[402,0],[206,-421],[0,-427],[-206,-281],[-710,7],[-8,-575],[-790,0],[0,-2446],[1303,0],[55,-1169],[-252,-535],[0,-1704]],[[42909,59008],[292,715],[845,-27],[173,-301],[372,201],[7,468],[-229,581],[-426,561],[87,395],[292,147],[-95,568],[292,922],[-79,354],[269,254],[229,-100],[790,568],[616,-7],[157,-281],[901,254],[284,-107],[260,-407],[451,113],[308,-294],[647,334],[158,381],[418,40],[103,341],[553,-187],[355,80],[111,-381],[458,-775],[995,-889],[1089,-1202],[616,33],[245,495],[813,-221],[158,-722],[348,-167],[466,348],[308,-381],[355,100],[955,-474]],[[53458,55219],[-1658,0],[0,1924],[-4122,0],[-221,535],[-308,254],[-813,-147],[-79,-274]],[[18335,26029],[-947,227],[-48,-434],[-568,427],[-261,-2312],[-434,227],[24,-494],[-1548,-27],[8,-1123],[-474,-106],[-158,434],[-8,782],[-1153,-435],[-1010,-133],[-64,-314],[-497,-20],[-1192,173],[-332,-240],[-8,-555],[419,-254],[-221,-1156],[205,-514],[-205,-188],[0,-1710],[205,6],[0,-1029]],[[10068,17261],[-1422,214],[-418,-120],[-1042,-896],[-119,-287],[569,-1403],[-861,66],[-189,-708],[-324,67],[-79,635],[-648,541],[-466,-27],[-197,-608],[-411,348],[79,381],[293,360],[-64,361],[-379,869],[-695,1049],[-750,963],[-860,848],[-1351,1069],[-695,301],[87,6522],[-15,14],[15,6936]],[[33101,11173],[-268,-287],[-150,-608],[-387,-515],[-79,-374],[-521,-387],[-1003,-502],[-640,-594],[-102,-662],[-514,-247],[-679,-1156],[-481,-40],[-521,942],[-387,481],[-806,575],[-592,80],[-395,-254],[-576,93],[-1027,1571],[-592,588],[-600,428],[-956,6],[-544,301]],[[21281,10612],[-119,802],[-616,875],[-31,582],[387,80],[-127,581],[221,2814],[332,133],[0,475],[-608,127],[-276,307],[-245,575],[110,514],[395,-33],[695,167],[63,515],[513,-67],[-23,822],[853,-167],[-285,1109],[514,1256],[150,989],[197,61],[213,862],[-102,427],[47,722],[245,441]],[[21281,10612],[-640,615],[-347,100],[-782,982],[-1745,1905],[-790,541],[-197,-200],[-600,648],[-529,408],[-1232,-288],[-316,-541],[-395,-53],[-561,113],[-813,648],[-1058,1116],[-829,548],[-379,107]]],"transform":{"scale":[0.00009014452443392498,0.0000517733061448821],"translate":[140.96207044661838,-39.15782929032132]},"objects":{"sa3":{"type":"GeometryCollection","geometries":[{"arcs":[[0,1]],"type":"Polygon","properties":{"SA3_CODE_2021":"20101","SA3_NAME_2021":"Ballarat"}},{"arcs":[[-2,2,3,4,5,6,7,8,9]],"type":"Polygon","properties":{"SA3_CODE_2021":"20102","SA3_NAME_2021":"Creswick - Daylesford - Ballan"}},{"arcs":[[-1,-10,10,11,12,13,14,-3]],"type":"Polygon","properties":{"SA3_CODE_2021":"20103","SA3_NAME_2021":"Maryborough - Pyrenees"}},{"arcs":[[15,16]],"type":"Polygon","properties":{"SA3_CODE_2021":"20201","SA3_NAME_2021":"Bendigo"}},{"arcs":[[-4,-15,17,-16,18,19,20,21]],"type":"Polygon","properties":{"SA3_CODE_2021":"20202","SA3_NAME_2021":"Heathcote - Castlemaine - Kyneton"}},{"arcs":[[-14,22,23,24,-19,-17,-18]],"type":"Polygon","properties":{"SA3_CODE_2021":"20203","SA3_NAME_2021":"Loddon - Elmore"}},{"arcs":[[-9,25,26,27,-11]],"type":"Polygon","properties":{"SA3_CODE_2021":"20301","SA3_NAME_2021":"Barwon - West"}},{"arcs":[[-8,28,29,30,-26]],"type":"Polygon","properties":{"SA3_CODE_2021":"20302","SA3_NAME_2021":"Geelong"}},{"arcs":[[-27,-31,31,32]],"type":"Polygon","properties":{"SA3_CODE_2021":"20303","SA3_NAME_2021":"Surf Coast - Bellarine Peninsula"}},{"arcs":[[-21,33,34,35,36,37,38,39,40,41]],"type":"Polygon","properties":{"SA3_CODE_2021":"20401","SA3_NAME_2021":"Upper Goulburn Valley"}},{"arcs":[[42,43,44,-36,45,46]],"type":"Polygon","properties":{"SA3_CODE_2021":"20402","SA3_NAME_2021":"Wangaratta - Benalla"}},{"arcs":[[47,48,49,-44,50]],"type":"Polygon","properties":{"SA3_CODE_2021":"20403","SA3_NAME_2021":"Wodonga - Alpine"}},{"arcs":[[-38,51,52,53,54,55]],"type":"Polygon","properties":{"SA3_CODE_2021":"20501","SA3_NAME_2021":"Baw Baw"}},{"arcs":[[56,57,-49,58]],"type":"Polygon","properties":{"SA3_CODE_2021":"20502","SA3_NAME_2021":"Gippsland - East"}},{"arcs":[[[-54,59,60,61,62]],[[63]],[[64]]],"type":"MultiPolygon","properties":{"SA3_CODE_2021":"20503","SA3_NAME_2021":"Gippsland - South West"}},{"arcs":[[-53,65,-60]],"type":"Polygon","properties":{"SA3_CODE_2021":"20504","SA3_NAME_2021":"Latrobe Valley"}},{"arcs":[[[-37,-45,-50,-58,66,-61,-66,-52]],[[67]],[[68]]],"type":"MultiPolygon","properties":{"SA3_CODE_2021":"20505","SA3_NAME_2021":"Wellington"}},{"arcs":[[69,70,71,72,73,74,75]],"type":"Polygon","properties":{"SA3_CODE_2021":"20601","SA3_NAME_2021":"Brunswick - Coburg"}},{"arcs":[[-75,76,77,78]],"type":"Polygon","properties":{"SA3_CODE_2021":"20602","SA3_NAME_2021":"Darebin - South"}},{"arcs":[[-71,79,80,81]],"type":"Polygon","properties":{"SA3_CODE_2021":"20603","SA3_NAME_2021":"Essendon"}},{"arcs":[[-70,82,83,84,85,-80]],"type":"Polygon","properties":{"SA3_CODE_2021":"20604","SA3_NAME_2021":"Melbourne City"}},{"arcs":[[-85,86,87,88,89,90]],"type":"Polygon","properties":{"SA3_CODE_2021":"20605","SA3_NAME_2021":"Port Phillip"}},{"arcs":[[-84,91,92,93,94,-87]],"type":"Polygon","properties":{"SA3_CODE_2021":"20606","SA3_NAME_2021":"Stonnington - West"}},{"arcs":[[-76,-79,95,96,-92,-83]],"type":"Polygon","properties":{"SA3_CODE_2021":"20607","SA3_NAME_2021":"Yarra"}},{"arcs":[[-93,-97,97,98,99,100,101]],"type":"Polygon","properties":{"SA3_CODE_2021":"20701","SA3_NAME_2021":"Boroondara"}},{"arcs":[[-99,102,103,104,105]],"type":"Polygon","properties":{"SA3_CODE_2021":"20702","SA3_NAME_2021":"Manningham - West"}},{"arcs":[[-100,-106,106,107,108]],"type":"Polygon","properties":{"SA3_CODE_2021":"20703","SA3_NAME_2021":"Whitehorse - West"}},{"arcs":[[-89,109,110,111]],"type":"Polygon","properties":{"SA3_CODE_2021":"20801","SA3_NAME_2021":"Bayside"}},{"arcs":[[-88,-95,112,113,114,115,-110]],"type":"Polygon","properties":{"SA3_CODE_2021":"20802","SA3_NAME_2021":"Glen Eira"}},{"arcs":[[-111,-116,116,117,118]],"type":"Polygon","properties":{"SA3_CODE_2021":"20803","SA3_NAME_2021":"Kingston"}},{"arcs":[[-94,-102,119,-113]],"type":"Polygon","properties":{"SA3_CODE_2021":"20804","SA3_NAME_2021":"Stonnington - East"}},{"arcs":[[-78,120,121,122,-103,-98,-96]],"type":"Polygon","properties":{"SA3_CODE_2021":"20901","SA3_NAME_2021":"Banyule"}},{"arcs":[[-74,123,124,-121,-77]],"type":"Polygon","properties":{"SA3_CODE_2021":"20902","SA3_NAME_2021":"Darebin - North"}},{"arcs":[[-40,125,126,-104,-123,127]],"type":"Polygon","properties":{"SA3_CODE_2021":"20903","SA3_NAME_2021":"Nillumbik - Kinglake"}},{"arcs":[[-41,-128,-122,-125,128,129]],"type":"Polygon","properties":{"SA3_CODE_2021":"20904","SA3_NAME_2021":"Whittlesea - Wallan"}},{"arcs":[[-72,-82,130,131,132,133]],"type":"Polygon","properties":{"SA3_CODE_2021":"21001","SA3_NAME_2021":"Keilor"}},{"arcs":[[-5,-22,-42,-130,134,135,136]],"type":"Polygon","properties":{"SA3_CODE_2021":"21002","SA3_NAME_2021":"Macedon Ranges"}},{"arcs":[[-73,-134,137,-124]],"type":"Polygon","properties":{"SA3_CODE_2021":"21003","SA3_NAME_2021":"Moreland - North"}},{"arcs":[[-136,138,139,140]],"type":"Polygon","properties":{"SA3_CODE_2021":"21004","SA3_NAME_2021":"Sunbury"}},{"arcs":[[-129,-138,-133,141,-139,-135]],"type":"Polygon","properties":{"SA3_CODE_2021":"21005","SA3_NAME_2021":"Tullamarine - Broadmeadows"}},{"arcs":[[142,143,144,145,146,147]],"type":"Polygon","properties":{"SA3_CODE_2021":"21101","SA3_NAME_2021":"Knox"}},{"arcs":[[-105,-127,148,149,150,-107]],"type":"Polygon","properties":{"SA3_CODE_2021":"21102","SA3_NAME_2021":"Manningham - East"}},{"arcs":[[-146,151,-150,152]],"type":"Polygon","properties":{"SA3_CODE_2021":"21103","SA3_NAME_2021":"Maroondah"}},{"arcs":[[-108,-151,-152,-145,153]],"type":"Polygon","properties":{"SA3_CODE_2021":"21104","SA3_NAME_2021":"Whitehorse - East"}},{"arcs":[[-39,-56,154,155,-147,-153,-149,-126]],"type":"Polygon","properties":{"SA3_CODE_2021":"21105","SA3_NAME_2021":"Yarra Ranges"}},{"arcs":[[-55,-63,156,157,158,-155]],"type":"Polygon","properties":{"SA3_CODE_2021":"21201","SA3_NAME_2021":"Cardinia"}},{"arcs":[[-148,-156,-159,159,160]],"type":"Polygon","properties":{"SA3_CODE_2021":"21202","SA3_NAME_2021":"Casey - North"}},{"arcs":[[-158,161,162,163,164,-160]],"type":"Polygon","properties":{"SA3_CODE_2021":"21203","SA3_NAME_2021":"Casey - South"}},{"arcs":[[-115,165,-143,-161,-165,166,-117]],"type":"Polygon","properties":{"SA3_CODE_2021":"21204","SA3_NAME_2021":"Dandenong"}},{"arcs":[[-101,-109,-154,-144,-166,-114,-120]],"type":"Polygon","properties":{"SA3_CODE_2021":"21205","SA3_NAME_2021":"Monash"}},{"arcs":[[-132,167,168,169,170,-140,-142]],"type":"Polygon","properties":{"SA3_CODE_2021":"21301","SA3_NAME_2021":"Brimbank"}},{"arcs":[[-91,171,172,-169,173]],"type":"Polygon","properties":{"SA3_CODE_2021":"21302","SA3_NAME_2021":"Hobsons Bay"}},{"arcs":[[-81,-86,-174,-168,-131]],"type":"Polygon","properties":{"SA3_CODE_2021":"21303","SA3_NAME_2021":"Maribyrnong"}},{"arcs":[[-6,-137,-141,-171,174]],"type":"Polygon","properties":{"SA3_CODE_2021":"21304","SA3_NAME_2021":"Melton - Bacchus Marsh"}},{"arcs":[[-7,-175,-170,-173,175,-29]],"type":"Polygon","properties":{"SA3_CODE_2021":"21305","SA3_NAME_2021":"Wyndham"}},{"arcs":[[-118,-167,-164,176,177]],"type":"Polygon","properties":{"SA3_CODE_2021":"21401","SA3_NAME_2021":"Frankston"}},{"arcs":[[-163,178,-177]],"type":"Polygon","properties":{"SA3_CODE_2021":"21402","SA3_NAME_2021":"Mornington Peninsula"}},{"arcs":[[-13,179,180,181,182,183,184,-23]],"type":"Polygon","properties":{"SA3_CODE_2021":"21501","SA3_NAME_2021":"Grampians"}},{"arcs":[[185,186,-184,187]],"type":"Polygon","properties":{"SA3_CODE_2021":"21502","SA3_NAME_2021":"Mildura"}},{"arcs":[[188,189,-24,-185,-187]],"type":"Polygon","properties":{"SA3_CODE_2021":"21503","SA3_NAME_2021":"Murray River - Swan Hill"}},{"arcs":[[190,191,192,-34,-20,-25,-190]],"type":"Polygon","properties":{"SA3_CODE_2021":"21601","SA3_NAME_2021":"Campaspe"}},{"arcs":[[193,-47,194,-192]],"type":"Polygon","properties":{"SA3_CODE_2021":"21602","SA3_NAME_2021":"Moira"}},{"arcs":[[-35,-193,-195,-46]],"type":"Polygon","properties":{"SA3_CODE_2021":"21603","SA3_NAME_2021":"Shepparton"}},{"arcs":[[-182,195,196]],"type":"Polygon","properties":{"SA3_CODE_2021":"21701","SA3_NAME_2021":"Glenelg - Southern Grampians"}},{"arcs":[[-12,-28,-33,197,198,-180]],"type":"Polygon","properties":{"SA3_CODE_2021":"21703","SA3_NAME_2021":"Colac - Corangamite"}},{"arcs":[[-181,-199,199,-196]],"type":"Polygon","properties":{"SA3_CODE_2021":"21704","SA3_NAME_2021":"Warrnambool"}}]}}}